NORAD_CAT_ID,OBJECT_NAME,OBJECT_TYPE,EPOCH,MEAN_MOTION,ECCENTRICITY,INCLINATION,RA_OF_ASC_NODE,ARG_OF_PERICENTER,MEAN_ANOMALY,BSTAR,MEAN_MOTION_DOT,MEAN_MOTION_DDOT,TLE_LINE0,TLE_LINE1,TLE_LINE2,SEMIMAJOR_AXIS,PERIOD,APOGEE,PERIGEE,DECAYED
51887.0,STARLINK-3551,PAYLOAD,2022-07-12 06:00:00,15.08865571,0.0001685,53.2163,238.6366,41.0766,51.8923,-0.0016669,-0.00026738,0.0,0 STARLINK-3551,1 51887U 22022AM  22193.25001157 -.00026738  00000-0 -16669-2 0  9993,2 51887  53.2163 238.6366 0001685  41.0766  51.8923 15.08865571 21488,6917.802,95.436,540.8330000000002,538.502,0.0
51887.0,STARLINK-3551,PAYLOAD,2022-07-12 14:00:01,15.08833758,0.000185,53.2156,237.1415,36.1036,68.4889,0.002983,0.00047499,0.0,0 STARLINK-3551,1 51887U 22022AM  22193.58334491  .00047499  00000-0  29830-2 0  9998,2 51887  53.2156 237.1415 0001850  36.1036  68.4889 15.08833758  1304,6917.899,95.438,541.044,538.485,0.0
51887.0,STARLINK-3551,PAYLOAD,2022-07-12 22:00:00,15.08848174,0.0001671,53.2155,235.6434,40.9003,75.3087,0.0016445,0.00025987,0.0,0 STARLINK-3551,1 51887U 22022AM  22193.91667824  .00025987  00000-0  16445-2 0  9990,2 51887  53.2155 235.6434 0001671  40.9003  75.3087 15.08848174  1300,6917.855,95.437,540.876,538.564,0.0
51887.0,STARLINK-3551,PAYLOAD,2022-07-13 14:00:01,15.08832546,0.0001956,53.2149,232.6523,38.6931,100.7463,0.00065328,0.00010122,0.0,0 STARLINK-3551,1 51887U 22022AM  22194.58334491  .00010122  00000-0  65328-3 0  9995,2 51887  53.2149 232.6523 0001956  38.6931 100.7463 15.08832546 21689,6917.903,95.438,541.121,538.415,0.0
51887.0,STARLINK-3551,PAYLOAD,2022-07-13 22:00:00,15.08808293,0.0001724,53.2148,231.1541,41.0164,110.0239,0.0013594,0.00021394,0.0,0 STARLINK-3551,1 51887U 22022AM  22194.91667824  .00021394  00000-0  13594-2 0  9991,2 51887  53.2148 231.1541 0001724  41.0164 110.0239 15.08808293  1305,6917.977,95.44,541.035,538.65,0.0
51887.0,STARLINK-3551,PAYLOAD,2022-07-14 08:00:01,15.08827898,0.0001911,53.2146,229.2848,40.5808,214.9161,-0.0010543,-0.00017023,0.0,0 STARLINK-3551,1 51887U 22022AM  22195.33334491 -.00017023  00000-0 -10543-2 0  9996,2 51887  53.2146 229.2848 0001911  40.5808 214.9161 15.08827898 21793,6917.917,95.438,541.104,538.46,0.0
51887.0,STARLINK-3551,PAYLOAD,2022-07-14 14:00:01,15.0880763,0.0001993,53.2145,228.163,37.4151,136.7649,0.0022431,0.0003556,0.0,0 STARLINK-3551,1 51887U 22022AM  22195.58334491  .00035560  00000-0  22431-2 0  9996,2 51887  53.2145 228.1630 0001993  37.4151 136.7649 15.08807630  1304,6917.979,95.44,541.2230000000002,538.466,0.0
51887.0,STARLINK-3551,PAYLOAD,2022-07-14 22:00:00,15.08807886,0.0001823,53.2147,226.6647,41.39,144.3696,0.0021825,0.00034587,0.0,0 STARLINK-3551,1 51887U 22022AM  22195.91667824  .00034587  00000-0  21825-2 0  9996,2 51887  53.2147 226.6647 0001823  41.3900 144.3696 15.08807886  1305,6917.979,95.44,541.105,538.582,0.0
51887.0,STARLINK-3551,PAYLOAD,2022-07-15 06:00:00,15.08843927,0.0001953,53.2148,225.1692,42.307,155.0209,-0.0016432,-0.00026348,0.0,0 STARLINK-3551,1 51887U 22022AM  22196.25001157 -.00026348  00000-0 -16432-2 0  9991,2 51887  53.2148 225.1692 0001953  42.3070 155.0209 15.08843927 21939,6917.868,95.437,541.0840000000002,538.382,0.0
51887.0,STARLINK-3551,PAYLOAD,2022-07-15 14:00:01,15.08823212,0.0002092,53.2148,223.6735,38.1482,170.7704,0.0017309,0.00027354,0.0,0 STARLINK-3551,1 51887U 22022AM  22196.58334491  .00027354  00000-0  17309-2 0  9997,2 51887  53.2148 223.6735 0002092  38.1482 170.7704 15.08823212  1303,6917.932,95.439,541.244,538.349,0.0
51887.0,STARLINK-3551,PAYLOAD,2022-07-15 22:00:00,15.08816806,0.0001926,53.2151,222.1752,42.2685,178.2449,0.0024921,0.00039572,0.0,0 STARLINK-3551,1 51887U 22022AM  22196.91667824  .00039572  00000-0  24921-2 0  9996,2 51887  53.2151 222.1752 0001926  42.2685 178.2449 15.08816806 22039,6917.951,95.439,541.149,538.484,0.0
51887.0,STARLINK-3551,PAYLOAD,2022-07-16 14:00:01,15.08840467,0.000217,53.2153,219.18400000000003,39.0941,204.6031,0.00099421,0.00015571,0.0,0 STARLINK-3551,1 51887U 22022AM  22197.58334491  .00015571  00000-0  99421-3 0  9992,2 51887  53.2153 219.1840 0002170  39.0941 204.6031 15.08840467 22138,6917.879,95.438,541.245,538.243,0.0
51887.0,STARLINK-3551,PAYLOAD,2022-07-16 22:00:00,15.08827359,0.0002002,53.2158,217.6857,43.7541,211.5554,0.002754,0.000438,0.0,0 STARLINK-3551,1 51887U 22022AM  22197.91667824  .00043800  00000-0  27540-2 0  9996,2 51887  53.2158 217.6857 0002002  43.7541 211.5554 15.08827359  1304,6917.919,95.438,541.169,538.399,0.0
51887.0,STARLINK-3551,PAYLOAD,2022-07-17 14:00:01,15.08861928,0.0002161,53.2159,214.6944,38.7401,239.7806,-0.0024119,-0.00038493,0.0,0 STARLINK-3551,1 51887U 22022AM  22198.58334491 -.00038493  00000-0 -24119-2 0  9994,2 51887  53.2159 214.6944 0002161  38.7401 239.7806 15.08861928 22286,6917.813,95.436,541.173,538.183,0.0
51887.0,STARLINK-3551,PAYLOAD,2022-07-17 22:00:00,15.08806917,0.0001954,53.2162,213.1963,42.8126,247.3162,0.0028388,0.00045141,0.0,0 STARLINK-3551,1 51887U 22022AM  22198.91667824  .00045141  00000-0  28388-2 0  9998,2 51887  53.2162 213.1963 0001954  42.8126 247.3162 15.08806917  1301,6917.982,95.44,541.198,538.495,0.0
51887.0,STARLINK-3551,PAYLOAD,2022-07-18 06:00:00,15.08845322,0.0002091,53.2164,211.7013,41.5924,260.1133,-0.0014356,-0.00023067,0.0,0 STARLINK-3551,1 51887U 22022AM  22199.25001157 -.00023067  00000-0 -14356-2 0  9992,2 51887  53.2164 211.7013 0002091  41.5924 260.1133 15.08845322 22383,6917.864000000001,95.437,541.1759999999998,538.283,0.0
51887.0,STARLINK-3551,PAYLOAD,2022-07-18 14:00:01,15.08841287,0.000215,53.2161,210.2051,39.0884,274.2035,-0.00056867,-9.328e-05,0.0,0 STARLINK-3551,1 51887U 22022AM  22199.58334491 -.00009328  00000-0 -56867-3 0  9996,2 51887  53.2161 210.2051 0002150  39.0884 274.2035 15.08841287  1301,6917.876,95.437,541.229,538.254,0.0
51887.0,STARLINK-3551,PAYLOAD,2022-07-18 22:00:00,15.08812916,0.0001966,53.2163,208.7073,44.8931,279.9996,0.0029087,0.00046274,0.0,0 STARLINK-3551,1 51887U 22022AM  22199.91667824  .00046274  00000-0  29087-2 0  9994,2 51887  53.2163 208.7073 0001966  44.8931 279.9996 15.08812916 22487,6917.9630000000025,95.439,541.188,538.4680000000002,0.0
51887.0,STARLINK-3551,PAYLOAD,2022-07-19 14:00:01,15.08851956,0.000216,53.2159,205.716,40.9493,307.1242,-0.0010001,-0.00016175,0.0,0 STARLINK-3551,1 51887U 22022AM  22200.58334491 -.00016175  00000-0 -10001-2 0  9996,2 51887  53.2159 205.7160 0002160  40.9493 307.1242 15.08851956 22589,6917.844,95.437,541.203,538.215,0.0
51887.0,STARLINK-3551,PAYLOAD,2022-07-19 22:00:00,15.08858113,0.0001989,53.2165,204.2128,45.1527,314.5238,-0.0037396,-0.00059345,0.0,0 STARLINK-3551,1 51887U 22022AM  22200.91667824 -.00059345  00000-0 -37396-2 0  9994,2 51887  53.2165 204.2128 0001989  45.1527 314.5238 15.08858113  1303,6917.825,95.436,541.066,538.314,0.0
51887.0,STARLINK-3551,PAYLOAD,2022-07-20 06:00:00,15.08859487,0.0002157,53.216,202.7235,44.7064,326.5773,-0.0012928,-0.00020816,0.0,0 STARLINK-3551,1 51887U 22022AM  22201.25001157 -.00020816  00000-0 -12928-2 0  9998,2 51887  53.2160 202.7235 0002157  44.7064 326.5773 15.08859487 22696,6917.821,95.436,541.178,538.194,0.0
51887.0,STARLINK-3551,PAYLOAD,2022-07-20 14:00:01,15.08874631,0.0002150999999999,53.2155,201.2269,41.7529,341.1358,-0.0040745,-0.00064616,0.0,0 STARLINK-3551,1 51887U 22022AM  22201.58334491 -.00064616  00000-0 -40745-2 0  9998,2 51887  53.2155 201.2269 0002151  41.7529 341.1358 15.08874631  1303,6917.775,95.435,541.128,538.1519999999998,0.0
51887.0,STARLINK-3551,PAYLOAD,2022-07-20 22:00:01,15.08777337,0.0002189,53.2171,199.7195,45.5414,348.9918,0.0058631,0.00094111,0.0,0 STARLINK-3551,1 51887U 22022AM  22201.91668981  .00094111  00000-0  58631-2 0  9993,2 51887  53.2171 199.7195 0002189  45.5414 348.9918 15.08777337 22794,6918.071999999999,95.442,541.451,538.423,0.0
51887.0,STARLINK-3551,PAYLOAD,2022-07-21 08:00:01,15.08822731,0.0002195999999999,53.2156,197.8608,43.3981,95.556,0.00063308,9.797e-05,0.0,0 STARLINK-3551,1 51887U 22022AM  22202.33334491  .00009797  00000-0  63308-3 0  9990,2 51887  53.2156 197.8608 0002196  43.3981  95.5560 15.08822731 22852,6917.933000000001,95.439,541.317,538.279,0.0
51887.0,STARLINK-3551,PAYLOAD,2022-07-21 14:00:01,15.08843937,0.0002181,53.2152,196.7378,42.1883,15.5051,-0.0015278,-0.00024524,0.0,0 STARLINK-3551,1 51887U 22022AM  22202.58335648 -.00024524  00000-0 -15278-2 0  9991,2 51887  53.2152 196.7378 0002181  42.1883  15.5051 15.08843937  1307,6917.868,95.437,541.242,538.225,0.0
51887.0,STARLINK-3551,PAYLOAD,2022-07-21 22:00:00,15.08816274,0.0002069,53.2152,195.2401,48.0667,21.1579,0.0024381,0.00038703,0.0,0 STARLINK-3551,1 51887U 22022AM  22202.91667824  .00038703  00000-0  24381-2 0  9999,2 51887  53.2152 195.2401 0002069  48.0667  21.1579 15.08816274  1300,6917.953,95.439,541.249,538.387,0.0
51887.0,STARLINK-3551,PAYLOAD,2022-07-22 06:00:00,15.08843574,0.0002271,53.2152,193.7455,45.3683,35.44300000000001,-0.00099805,-0.00016139,0.0,0 STARLINK-3551,1 51887U 22022AM  22203.25001157 -.00016139  00000-0 -99805-3 0  9993,2 51887  53.2152 193.7455 0002271  45.3683  35.4430 15.08843574  1302,6917.869000000002,95.437,541.306,538.163,0.0
51887.0,STARLINK-3551,PAYLOAD,2022-07-22 12:00:00,15.08838064,0.0002289,53.2151,192.6233,42.6281,316.877,0.00075768,0.0001179,0.0,0 STARLINK-3551,1 51887U 22022AM  22203.50001157  .00011790  00000-0  75768-3 0  9999,2 51887  53.2151 192.6233 0002289  42.6281 316.8770 15.08838064 23020,6917.886,95.438,541.335,538.168,0.0
51887.0,STARLINK-3551,PAYLOAD,2022-07-22 22:00:00,15.0883467,0.0002171,53.2154,190.7509,49.2786,54.7312,0.0022445,0.00035609,0.0,0 STARLINK-3551,1 51887U 22022AM  22203.91667824  .00035609  00000-0  22445-2 0  9991,2 51887  53.2154 190.7509 0002171  49.2786  54.7312 15.08834670  1307,6917.897,95.438,541.264,538.26,0.0
